CCSDS_OMM_VERS = 2.0
CREATION_DATE  = 
ORIGINATOR     = 

OBJECT_NAME    = SL-3 R/B
OBJECT_ID      = 1982-079B
CENTER_NAME    = EARTH
REF_FRAME      = TEME
TIME_SYSTEM    = UTC
MEAN_ELEMENT_THEORY = SGP/SGP4

EPOCH          = 2026-01-04T11:13:53.139360
MEAN_MOTION    = 15.23915803
ECCENTRICITY   = .0026186
INCLINATION    = 81.1474
RA_OF_ASC_NODE = 268.8664
ARG_OF_PERICENTER = 25.9017
MEAN_ANOMALY   = 334.3519

EPHEMERIS_TYPE = 0
CLASSIFICATION_TYPE = U
NORAD_CAT_ID   = 13403
ELEMENT_SET_NO = 999
REV_AT_EPOCH   = 36791
BSTAR          = .34295E-3
MEAN_MOTION_DOT = .8392E-4
MEAN_MOTION_DDOT = 0

CCSDS_OMM_VERS = 2.0
CREATION_DATE  = 
ORIGINATOR     = 

OBJECT_NAME    = SL-14 R/B
OBJECT_ID      = 1982-092B
CENTER_NAME    = EARTH
REF_FRAME      = TEME
TIME_SYSTEM    = UTC
MEAN_ELEMENT_THEORY = SGP/SGP4

EPOCH          = 2026-01-04T11:47:22.035264
MEAN_MOTION    = 14.86582712
ECCENTRICITY   = .0021031
INCLINATION    = 82.5669
RA_OF_ASC_NODE = 201.4331
ARG_OF_PERICENTER = 150.6014
MEAN_ANOMALY   = 229.5278

EPHEMERIS_TYPE = 0
CLASSIFICATION_TYPE = U
NORAD_CAT_ID   = 13553
ELEMENT_SET_NO = 999
REV_AT_EPOCH   = 31939
BSTAR          = .8638E-4
MEAN_MOTION_DOT = .793E-5
MEAN_MOTION_DDOT = 0

CCSDS_OMM_VERS = 2.0
CREATION_DATE  = 
ORIGINATOR     = 

OBJECT_NAME    = SL-3 R/B
OBJECT_ID      = 1983-010B
CENTER_NAME    = EARTH
REF_FRAME      = TEME
TIME_SYSTEM    = UTC
MEAN_ELEMENT_THEORY = SGP/SGP4

EPOCH          = 2026-01-04T04:45:53.597664
MEAN_MOTION    = 15.44191916
ECCENTRICITY   = .00162212
INCLINATION    = 81.1043
RA_OF_ASC_NODE = 81.1925
ARG_OF_PERICENTER = 270.5998
MEAN_ANOMALY   = 89.3387

EPHEMERIS_TYPE = 0
CLASSIFICATION_TYPE = U
NORAD_CAT_ID   = 13819
ELEMENT_SET_NO = 999
REV_AT_EPOCH   = 34798
BSTAR          = .41642538E-3
MEAN_MOTION_DOT = .19242E-3
MEAN_MOTION_DDOT = 0

CCSDS_OMM_VERS = 2.0
CREATION_DATE  = 
ORIGINATOR     = 

OBJECT_NAME    = SL-3 R/B
OBJECT_ID      = 1983-075B
CENTER_NAME    = EARTH
REF_FRAME      = TEME
TIME_SYSTEM    = UTC
MEAN_ELEMENT_THEORY = SGP/SGP4

EPOCH          = 2026-01-04T12:25:28.754688
MEAN_MOTION    = 15.36697183
ECCENTRICITY   = .0024522
INCLINATION    = 97.6105
RA_OF_ASC_NODE = 6.7741
ARG_OF_PERICENTER = 98.4461
MEAN_ANOMALY   = 261.9563

EPHEMERIS_TYPE = 0
CLASSIFICATION_TYPE = U
NORAD_CAT_ID   = 14208
ELEMENT_SET_NO = 999
REV_AT_EPOCH   = 32029
BSTAR          = .36107E-3
MEAN_MOTION_DOT = .12992E-3
MEAN_MOTION_DDOT = 0

CCSDS_OMM_VERS = 2.0
CREATION_DATE  = 
ORIGINATOR     = 

OBJECT_NAME    = COSMOS 1536
OBJECT_ID      = 1984-013A
CENTER_NAME    = EARTH
REF_FRAME      = TEME
TIME_SYSTEM    = UTC
MEAN_ELEMENT_THEORY = SGP/SGP4

EPOCH          = 2026-01-04T11:29:07.088928
MEAN_MOTION    = 15.22865667
ECCENTRICITY   = .0015256
INCLINATION    = 82.5448
RA_OF_ASC_NODE = 171.6087
ARG_OF_PERICENTER = 144.4111
MEAN_ANOMALY   = 215.8146

EPHEMERIS_TYPE = 0
CLASSIFICATION_TYPE = U
NORAD_CAT_ID   = 14699
ELEMENT_SET_NO = 999
REV_AT_EPOCH   = 26284
BSTAR          = .40256E-3
MEAN_MOTION_DOT = .949E-4
MEAN_MOTION_DDOT = 0

CCSDS_OMM_VERS = 2.0
CREATION_DATE  = 
ORIGINATOR     = 

OBJECT_NAME    = SL-14 R/B
OBJECT_ID      = 1984-027B
CENTER_NAME    = EARTH
REF_FRAME      = TEME
TIME_SYSTEM    = UTC
MEAN_ELEMENT_THEORY = SGP/SGP4

EPOCH          = 2026-01-04T07:36:28.425024
MEAN_MOTION    = 14.85904117
ECCENTRICITY   = .0017798
INCLINATION    = 82.5429
RA_OF_ASC_NODE = 305.3847
ARG_OF_PERICENTER = 181.7774
MEAN_ANOMALY   = 178.3382

EPHEMERIS_TYPE = 0
CLASSIFICATION_TYPE = U
NORAD_CAT_ID   = 14820
ELEMENT_SET_NO = 999
REV_AT_EPOCH   = 23807
BSTAR          = .9243E-4
MEAN_MOTION_DOT = .832E-5
MEAN_MOTION_DDOT = 0

CCSDS_OMM_VERS = 2.0
CREATION_DATE  = 
ORIGINATOR     = 

OBJECT_NAME    = SL-8 R/B
OBJECT_ID      = 1985-006B
CENTER_NAME    = EARTH
REF_FRAME      = TEME
TIME_SYSTEM    = UTC
MEAN_ELEMENT_THEORY = SGP/SGP4

EPOCH          = 2026-01-04T12:22:35.918400
MEAN_MOTION    = 14.37738784
ECCENTRICITY   = .0019632
INCLINATION    = 74.0458
RA_OF_ASC_NODE = 19.2284
ARG_OF_PERICENTER = 307.3066
MEAN_ANOMALY   = 170.5413

EPHEMERIS_TYPE = 0
CLASSIFICATION_TYPE = U
NORAD_CAT_ID   = 15483
ELEMENT_SET_NO = 999
REV_AT_EPOCH   = 14480
BSTAR          = .16283E-3
MEAN_MOTION_DOT = .465E-5
MEAN_MOTION_DDOT = 0

CCSDS_OMM_VERS = 2.0
CREATION_DATE  = 
ORIGINATOR     = 

OBJECT_NAME    = SL-12 R/B(2)
OBJECT_ID      = 1985-042D
CENTER_NAME    = EARTH
REF_FRAME      = TEME
TIME_SYSTEM    = UTC
MEAN_ELEMENT_THEORY = SGP/SGP4

EPOCH          = 2026-01-04T08:22:45.173280
MEAN_MOTION    = 14.21959477
ECCENTRICITY   = .0036952
INCLINATION    = 71.1068
RA_OF_ASC_NODE = 223.6565
ARG_OF_PERICENTER = 228.1751
MEAN_ANOMALY   = 304.5075

EPHEMERIS_TYPE = 0
CLASSIFICATION_TYPE = U
NORAD_CAT_ID   = 15772
ELEMENT_SET_NO = 999
REV_AT_EPOCH   = 10524
BSTAR          = .61374E-4
MEAN_MOTION_DOT = .89E-6
MEAN_MOTION_DDOT = 0

CCSDS_OMM_VERS = 2.0
CREATION_DATE  = 
ORIGINATOR     = 

OBJECT_NAME    = SL-14 R/B
OBJECT_ID      = 1985-069B
CENTER_NAME    = EARTH
REF_FRAME      = TEME
TIME_SYSTEM    = UTC
MEAN_ELEMENT_THEORY = SGP/SGP4

EPOCH          = 2026-01-04T07:42:45.966240
MEAN_MOTION    = 14.86354753
ECCENTRICITY   = .0019905
INCLINATION    = 82.5269
RA_OF_ASC_NODE = 85.4741
ARG_OF_PERICENTER = 48.8958
MEAN_ANOMALY   = 311.3973

EPHEMERIS_TYPE = 0
CLASSIFICATION_TYPE = U
NORAD_CAT_ID   = 15945
ELEMENT_SET_NO = 999
REV_AT_EPOCH   = 16327
BSTAR          = .85289E-4
MEAN_MOTION_DOT = .779E-5
MEAN_MOTION_DDOT = 0

CCSDS_OMM_VERS = 2.0
CREATION_DATE  = 
ORIGINATOR     = 

OBJECT_NAME    = SL-16 R/B
OBJECT_ID      = 1985-097B
CENTER_NAME    = EARTH
REF_FRAME      = TEME
TIME_SYSTEM    = UTC
MEAN_ELEMENT_THEORY = SGP/SGP4

EPOCH          = 2026-01-04T04:08:47.011776
MEAN_MOTION    = 14.16587878
ECCENTRICITY   = .00080405
INCLINATION    = 71.0031
RA_OF_ASC_NODE = 276.3768
ARG_OF_PERICENTER = 337.7911
MEAN_ANOMALY   = 128.3782

EPHEMERIS_TYPE = 0
CLASSIFICATION_TYPE = U
NORAD_CAT_ID   = 16182
ELEMENT_SET_NO = 999
REV_AT_EPOCH   = 7809
BSTAR          = .14706137E-3
MEAN_MOTION_DOT = .246E-5
MEAN_MOTION_DDOT = 0

CCSDS_OMM_VERS = 2.0
CREATION_DATE  = 
ORIGINATOR     = 

OBJECT_NAME    = SL-14 R/B
OBJECT_ID      = 1986-006B
CENTER_NAME    = EARTH
REF_FRAME      = TEME
TIME_SYSTEM    = UTC
MEAN_ELEMENT_THEORY = SGP/SGP4

EPOCH          = 2026-01-04T09:10:06.971232
MEAN_MOTION    = 14.86706831
ECCENTRICITY   = .0077935
INCLINATION    = 82.5280
RA_OF_ASC_NODE = 320.2472
ARG_OF_PERICENTER = 125.1660
MEAN_ANOMALY   = 235.6890

EPHEMERIS_TYPE = 0
CLASSIFICATION_TYPE = U
NORAD_CAT_ID   = 16496
ELEMENT_SET_NO = 999
REV_AT_EPOCH   = 13965
BSTAR          = .1056E-3
MEAN_MOTION_DOT = .102E-4
MEAN_MOTION_DDOT = 0

CCSDS_OMM_VERS = 2.0
CREATION_DATE  = 
ORIGINATOR     = 

OBJECT_NAME    = COSMOS 1743
OBJECT_ID      = 1986-034A
CENTER_NAME    = EARTH
REF_FRAME      = TEME
TIME_SYSTEM    = UTC
MEAN_ELEMENT_THEORY = SGP/SGP4

EPOCH          = 2026-01-04T09:38:47.056992
MEAN_MOTION    = 15.53715754
ECCENTRICITY   = .0005048
INCLINATION    = 82.5357
RA_OF_ASC_NODE = 141.0291
ARG_OF_PERICENTER = 164.1023
MEAN_ANOMALY   = 196.0389

EPHEMERIS_TYPE = 0
CLASSIFICATION_TYPE = U
NORAD_CAT_ID   = 16719
ELEMENT_SET_NO = 999
REV_AT_EPOCH   = 17025
BSTAR          = .62074E-3
MEAN_MOTION_DOT = .39891E-3
MEAN_MOTION_DDOT = 0

