SL-3 R/B                
1 13403U 82079B   26004.46797615  .00008392  00000+0  34295-3 0  9991
2 13403  81.1474 268.8664 0026186  25.9017 334.3519 15.23915803367916
SL-14 R/B               
1 13553U 82092B   26004.49122726  .00000793  00000+0  86380-4 0  9990
2 13553  82.5669 201.4331 0021031 150.6014 229.5278 14.86582712319397
SL-3 R/B                
1 13819U 83010B   26004.19853701  .00019242  00000+0  41643-3 0  9998
2 13819  81.1043  81.1925 0016221 270.5998  89.3387 15.44191916347989
SL-3 R/B                
1 14208U 83075B   26004.51769392  .00012992  00000+0  36107-3 0  9994
2 14208  97.6105   6.7741 0024522  98.4461 261.9563 15.36697183320294
COSMOS 1536             
1 14699U 84013A   26004.47855427  .00009490  00000+0  40256-3 0  9990
2 14699  82.5448 171.6087 0015256 144.4111 215.8146 15.22865667262844
SL-14 R/B               
1 14820U 84027B   26004.31699566  .00000832  00000+0  92430-4 0  9997
2 14820  82.5429 305.3847 0017798 181.7774 178.3382 14.85904117238076
SL-8 R/B                
1 15483U 85006B   26004.51569350  .00000465  00000+0  16283-3 0  9993
2 15483  74.0458  19.2284 0019632 307.3066 170.5413 14.37738784144803
SL-12 R/B(2)            
1 15772U 85042D   26004.34913395  .00000089  00000+0  61374-4 0  9991
2 15772  71.1068 223.6565 0036952 228.1751 304.5075 14.21959477105242
SL-14 R/B               
1 15945U 85069B   26004.32136535  .00000779  00000+0  85289-4 0  9990
2 15945  82.5269  85.4741 0019905  48.8958 311.3973 14.86354753163275
SL-16 R/B               
1 16182U 85097B   26004.17276634  .00000246  00000+0  14706-3 0  9997
2 16182  71.0031 276.3768 0008040 337.7911 128.3782 14.16587878 78094
SL-14 R/B               
1 16496U 86006B   26004.38202513  .00001020  00000+0  10560-3 0  9999
2 16496  82.5280 320.2472 0077935 125.1660 235.6890 14.86706831139656
COSMOS 1743             
1 16719U 86034A   26004.40193353  .00039891  00000+0  62074-3 0  9996
2 16719  82.5357 141.0291 0005048 164.1023 196.0389 15.53715754170252
